{
  "type": "FeatureCollection",
  "features": [
    {
      "type": "Feature",
      "properties": {
        "norad_id": 31514,
        "name": "FENGYUN 1C DEB",
        "group": "fengyun-1c-debris",
        "lat": -4.862131693573543,
        "lon": -113.15234121615961,
        "alt_km": 846.4637093400215,
        "timestamp": "2025-12-11T08:58:27.406857+00:00",
        "meta_object_name": "FENGYUN 1C DEB",
        "meta_object_id": "1999-025BXD",
        "meta_epoch": "2025-12-10T16:05:53.476512",
        "meta_mean_motion": 14.20962702,
        "meta_eccentricity": 0.00526068,
        "meta_inclination": 99.2467,
        "meta_ra_of_asc_node": 245.3182,
        "meta_arg_of_pericenter": 120.8812,
        "meta_mean_anomaly": 239.7552,
        "meta_ephemeris_type": 0,
        "meta_classification_type": "U",
        "meta_norad_cat_id": 31514,
        "meta_element_set_no": 999,
        "meta_rev_at_epoch": 69295,
        "meta_bstar": 0.0022942237,
        "meta_mean_motion_dot": 4.995e-05,
        "meta_mean_motion_ddot": 0,
        "tle_line1": "1 31514U 99025BXD 25344.67075783  .00004995  00000+0  22942-2 0  9997",
        "tle_line2": "2 31514  99.2467 245.3182 0052606 120.8812 239.7552 14.20962702692956"
      },
      "geometry": {
        "type": "Point",
        "coordinates": [
          -113.15234121615961,
          -4.862131693573543
        ]
      }
    },
    {
      "type": "Feature",
      "properties": {
        "norad_id": 31516,
        "name": "FENGYUN 1C DEB",
        "group": "fengyun-1c-debris",
        "lat": -54.37260176116785,
        "lon": 113.79382567984318,
        "alt_km": 763.1569333247162,
        "timestamp": "2025-12-11T08:58:27.406869+00:00",
        "meta_object_name": "FENGYUN 1C DEB",
        "meta_object_id": "1999-025BXF",
        "meta_epoch": "2025-12-10T13:18:16.054272",
        "meta_mean_motion": 14.25402083,
        "meta_eccentricity": 0.0148319,
        "meta_inclination": 98.8323,
        "meta_ra_of_asc_node": 100.4379,
        "meta_arg_of_pericenter": 244.9092,
        "meta_mean_anomaly": 175.0824,
        "meta_ephemeris_type": 0,
        "meta_classification_type": "U",
        "meta_norad_cat_id": 31516,
        "meta_element_set_no": 999,
        "meta_rev_at_epoch": 96461,
        "meta_bstar": 0.00074351,
        "meta_mean_motion_dot": 1.92e-05,
        "meta_mean_motion_ddot": 0,
        "tle_line1": "1 31516U 99025BXF 25344.55435248  .00001920  00000+0  74351-3 0  9999",
        "tle_line2": "2 31516  98.8323 100.4379 0148319 244.9092 175.0824 14.25402083964613"
      },
      "geometry": {
        "type": "Point",
        "coordinates": [
          113.79382567984318,
          -54.37260176116785
        ]
      }
    },
    {
      "type": "Feature",
      "properties": {
        "norad_id": 31519,
        "name": "FENGYUN 1C DEB",
        "group": "fengyun-1c-debris",
        "lat": 70.55808485662132,
        "lon": -43.34121143176146,
        "alt_km": 844.0229525450668,
        "timestamp": "2025-12-11T08:58:27.406880+00:00",
        "meta_object_name": "FENGYUN 1C DEB",
        "meta_object_id": "1999-025BXJ",
        "meta_epoch": "2025-12-11T05:15:28.849824",
        "meta_mean_motion": 14.23393679,
        "meta_eccentricity": 0.0051658,
        "meta_inclination": 98.5728,
        "meta_ra_of_asc_node": 341.8077,
        "meta_arg_of_pericenter": 247.2921,
        "meta_mean_anomaly": 112.2792,
        "meta_ephemeris_type": 0,
        "meta_classification_type": "U",
        "meta_norad_cat_id": 31519,
        "meta_element_set_no": 999,
        "meta_rev_at_epoch": 64743,
        "meta_bstar": 0.00064829,
        "meta_mean_motion_dot": 1.448e-05,
        "meta_mean_motion_ddot": 0,
        "tle_line1": "1 31519U 99025BXJ 25345.21908391  .00001448  00000+0  64829-3 0  9994",
        "tle_line2": "2 31519  98.5728 341.8077 0051658 247.2921 112.2792 14.23393679647437"
      },
      "geometry": {
        "type": "Point",
        "coordinates": [
          -43.34121143176146,
          70.55808485662132
        ]
      }
    },
    {
      "type": "Feature",
      "properties": {
        "norad_id": 31522,
        "name": "FENGYUN 1C DEB",
        "group": "fengyun-1c-debris",
        "lat": -62.276200600932725,
        "lon": 166.68422963701593,
        "alt_km": 862.7806282761476,
        "timestamp": "2025-12-11T08:58:27.406895+00:00",
        "meta_object_name": "FENGYUN 1C DEB",
        "meta_object_id": "1999-025BXM",
        "meta_epoch": "2025-12-07T08:02:15.887040",
        "meta_mean_motion": 14.03985195,
        "meta_eccentricity": 0.00431068,
        "meta_inclination": 98.7082,
        "meta_ra_of_asc_node": 359.7695,
        "meta_arg_of_pericenter": 215.7743,
        "meta_mean_anomaly": 144.0536,
        "meta_ephemeris_type": 0,
        "meta_classification_type": "U",
        "meta_norad_cat_id": 31522,
        "meta_element_set_no": 999,
        "meta_rev_at_epoch": 94920,
        "meta_bstar": 0.0010143064,
        "meta_mean_motion_dot": 1.574e-05,
        "meta_mean_motion_ddot": 0,
        "tle_line1": "1 31522U 99025BXM 25341.33490610  .00001574  00000+0  10143-2 0  9996",
        "tle_line2": "2 31522  98.7082 359.7695 0043106 215.7743 144.0536 14.03985195949208"
      },
      "geometry": {
        "type": "Point",
        "coordinates": [
          166.68422963701593,
          -62.276200600932725
        ]
      }
    },
    {
      "type": "Feature",
      "properties": {
        "norad_id": 31523,
        "name": "FENGYUN 1C DEB",
        "group": "fengyun-1c-debris",
        "lat": 38.51553761267027,
        "lon": 25.900212243104388,
        "alt_km": 835.6251689532774,
        "timestamp": "2025-12-11T08:58:27.406906+00:00",
        "meta_object_name": "FENGYUN 1C DEB",
        "meta_object_id": "1999-025BXN",
        "meta_epoch": "2025-12-11T02:08:15.704160",
        "meta_mean_motion": 14.13859885,
        "meta_eccentricity": 0.0039388,
        "meta_inclination": 98.7575,
        "meta_ra_of_asc_node": 32.6681,
        "meta_arg_of_pericenter": 114.6108,
        "meta_mean_anomaly": 275.8809,
        "meta_ephemeris_type": 0,
        "meta_classification_type": "U",
        "meta_norad_cat_id": 31523,
        "meta_element_set_no": 999,
        "meta_rev_at_epoch": 95984,
        "meta_bstar": 3.1347e-05,
        "meta_mean_motion_dot": 1.7e-07,
        "meta_mean_motion_ddot": 0,
        "tle_line1": "1 31523U 99025BXN 25345.08907065  .00000017  00000+0  31347-4 0  9992",
        "tle_line2": "2 31523  98.7575  32.6681 0039388 114.6108 275.8809 14.13859885959841"
      },
      "geometry": {
        "type": "Point",
        "coordinates": [
          25.900212243104388,
          38.51553761267027
        ]
      }
    },
    {
      "type": "Feature",
      "properties": {
        "norad_id": 31527,
        "name": "FENGYUN 1C DEB",
        "group": "fengyun-1c-debris",
        "lat": -11.645398478179773,
        "lon": -30.70985289500467,
        "alt_km": 1290.1198463430655,
        "timestamp": "2025-12-11T08:58:27.406916+00:00",
        "meta_object_name": "FENGYUN 1C DEB",
        "meta_object_id": "1999-025BXS",
        "meta_epoch": "2025-12-07T16:52:20.794080",
        "meta_mean_motion": 13.23396066,
        "meta_eccentricity": 0.04500434,
        "meta_inclination": 98.893,
        "meta_ra_of_asc_node": 147.9974,
        "meta_arg_of_pericenter": 312.678,
        "meta_mean_anomaly": 43.7239,
        "meta_ephemeris_type": 0,
        "meta_classification_type": "U",
        "meta_norad_cat_id": 31527,
        "meta_element_set_no": 999,
        "meta_rev_at_epoch": 90123,
        "meta_bstar": 0.00087176212,
        "meta_mean_motion_dot": 5.94e-06,
        "meta_mean_motion_ddot": 0,
        "tle_line1": "1 31527U 99025BXS 25341.70301845  .00000594  00000+0  87176-3 0  9995",
        "tle_line2": "2 31527  98.8930 147.9974 0450043 312.6780  43.7239 13.23396066901233"
      },
      "geometry": {
        "type": "Point",
        "coordinates": [
          -30.70985289500467,
          -11.645398478179773
        ]
      }
    },
    {
      "type": "Feature",
      "properties": {
        "norad_id": 31531,
        "name": "FENGYUN 1C DEB",
        "group": "fengyun-1c-debris",
        "lat": -81.22194168477395,
        "lon": 102.91004844345895,
        "alt_km": 605.9240145895446,
        "timestamp": "2025-12-11T08:58:27.406926+00:00",
        "meta_object_name": "FENGYUN 1C DEB",
        "meta_object_id": "1999-025BXW",
        "meta_epoch": "2025-12-10T09:57:00.080928",
        "meta_mean_motion": 14.35620233,
        "meta_eccentricity": 0.02438416,
        "meta_inclination": 98.3826,
        "meta_ra_of_asc_node": 29.2494,
        "meta_arg_of_pericenter": 275.5783,
        "meta_mean_anomaly": 81.7642,
        "meta_ephemeris_type": 0,
        "meta_classification_type": "U",
        "meta_norad_cat_id": 31531,
        "meta_element_set_no": 999,
        "meta_rev_at_epoch": 63901,
        "meta_bstar": 0.0013051949,
        "meta_mean_motion_dot": 5.23e-05,
        "meta_mean_motion_ddot": 0,
        "tle_line1": "1 31531U 99025BXW 25344.41458427  .00005230  00000+0  13052-2 0  9993",
        "tle_line2": "2 31531  98.3826  29.2494 0243841 275.5783  81.7642 14.35620233639016"
      },
      "geometry": {
        "type": "Point",
        "coordinates": [
          102.91004844345895,
          -81.22194168477395
        ]
      }
    }
  ]
}